OBJECT_NAME,OBJECT_ID,EPOCH,MEAN_MOTION,ECCENTRICITY,INCLINATION,RA_OF_ASC_NODE,ARG_OF_PERICENTER,MEAN_ANOMALY,EPHEMERIS_TYPE,CLASSIFICATION_TYPE,NORAD_CAT_ID,ELEMENT_SET_NO,REV_AT_EPOCH,BSTAR,MEAN_MOTION_DOT,MEAN_MOTION_DDOT
TIANQI-24,2023-135D,2026-07-19T19:36:07.737408,14.23156734,.0013788,49.9743,15.4889,16.8543,343.2825,0,U,57795,999,14927,.10959E-3,.9E-6,0
YAOGAN-33 03,2023-136A,2026-07-19T20:15:45.055872,14.58750247,.0009176,98.1938,124.7217,85.7982,274.4266,0,U,57797,999,15269,.47735E-4,.177E-5,0
XRISM,2023-137A,2026-07-19T04:41:28.222656,15.12686798,.00078403,31.0011,152.2226,285.9268,74.0507,0,U,57800,999,15771,.11825372E-3,.222E-4,0
STARLINK-30374,2023-138B,2026-07-19T09:24:00.945504,15.27577352,.00011853,43.0000,210.1264,275.2601,84.8115,0,U,57809,999,15888,.8696006E-5,-.23E-6,0
STARLINK-30394,2023-138C,2026-07-19T17:35:09.311424,15.27589510,.0001174,42.9997,208.3861,268.6000,91.4717,0,U,57810,999,15883,.18148E-3,.4737E-4,0
STARLINK-30379,2023-138D,2026-07-19T17:40:42.098304,15.27575402,.0001182,43.0029,208.4166,275.7165,84.3552,0,U,57811,999,15893,.14262E-4,.13E-5,0
STARLINK-30395,2023-138E,2026-07-19T17:46:16.985568,15.27563088,.0001161,43.0035,208.4427,275.0659,85.0060,0,U,57812,999,15893,-.3136E-4,-.1124E-4,0
STARLINK-30403,2023-138F,2026-07-19T09:59:09.984192,15.27578154,.00015251,43.0031,210.3114,290.9976,69.0712,0,U,57813,999,15878,.21819491E-4,.338E-5,0
STARLINK-30413,2023-138G,2026-07-19T17:03:54.015840,15.27567240,.0001285,43.0008,209.0787,277.6438,82.4268,0,U,57814,999,15892,-.55554E-4,-.179E-4,0
STARLINK-30398,2023-138H,2026-07-19T08:41:39.717600,15.27577837,.0001897,43.0019,210.7631,276.8580,83.2055,0,U,57815,999,15877,.51877099E-4,.1165E-4,0
STARLINK-30386,2023-138J,2026-07-19T07:13:03.751968,15.27573479,.00018465,43.0022,211.1633,276.7422,83.3220,0,U,57816,999,15868,.33549617E-4,.661E-5,0
STARLINK-30391,2023-138K,2026-07-19T02:36:09.555552,15.27592501,.00015789,43.0000,212.2947,285.1421,74.9256,0,U,57817,999,15883,.33482685E-3,.8966E-4,0
STARLINK-30401,2023-138L,2026-07-19T08:56:27.908736,15.27577429,.00015225,43.0011,210.8298,275.0615,85.0063,0,U,57818,999,15877,.33474643E-4,.659E-5,0
STARLINK-30390,2023-138M,2026-07-19T09:02:01.216608,15.27577067,.00014701,43.0009,210.8668,272.4398,87.6285,0,U,57819,999,15881,.53235947E-4,.1203E-4,0
STARLINK-30409,2023-138N,2026-07-19T09:35:06.883008,15.27573651,.00013468,43.0014,210.1624,259.5872,100.4828,0,U,57820,999,15882,-.9550688E-5,-.525E-5,0
STARLINK-30415,2023-138P,2026-07-19T09:18:40.408416,15.27575738,.00013167,43.0005,210.9495,270.6480,89.4221,0,U,57821,999,15887,.2702872E-4,.482E-5,0
STARLINK-30407,2023-138R,2026-07-19T10:10:43.175712,15.27576237,.00010233,43.0008,104.8143,263.4387,96.6349,0,U,57823,999,16011,.18927767E-4,.259E-5,0
STARLINK-30408,2023-138S,2026-07-19T09:29:34.042560,15.27573532,.00012419,43.0002,210.1510,271.8004,88.2705,0,U,57824,999,15887,.14211279E-4,.129E-5,0
STARLINK-30377,2023-138T,2026-07-19T09:27:42.799968,15.27572563,.00011894,42.9995,210.1410,288.3585,71.7138,0,U,57825,999,15877,-.36820684E-4,-.1275E-4,0
STARLINK-30422,2023-138U,2026-07-19T17:51:48.519648,15.27571491,.0002068,43.0043,208.4694,291.3675,68.6956,0,U,57826,999,15892,.32779E-4,.639E-5,0
STARLINK-30402,2023-138V,2026-07-19T17:37:00.047712,15.27574346,.0001527,43.0026,208.3941,277.0333,83.0345,0,U,57827,999,15892,.10654E-4,.31E-6,0
STARLINK-30411,2023-138W,2026-07-19T17:31:26.423616,15.27577144,.0001252,43.0016,208.3408,270.2244,89.8464,0,U,57828,999,15886,-.48294E-5,-.395E-5,0
STARLINK-30418,2023-138X,2026-07-19T09:33:15.918624,15.27579052,.00014804,43.0012,210.1679,275.7172,84.3511,0,U,57829,999,15871,-.27473884E-4,-.1018E-4,0
YAOGAN-40 01A,2023-139A,2026-07-19T21:10:43.515840,14.12452928,.0002383,85.9886,245.2828,93.1800,266.9656,0,U,57830,999,14731,.25147E-4,.65E-6,0
YAOGAN-40 01B,2023-139C,2026-07-19T21:10:57.020160,14.12453335,.0002476,85.9885,245.2603,92.3039,267.8428,0,U,57832,999,14732,.26445E-4,.68E-6,0
YAOGAN-40 01C,2023-139D,2026-07-19T21:10:50.005344,14.12451907,.0002052,85.9889,244.5472,74.1821,285.9589,0,U,57833,999,14742,.26954E-4,.69E-6,0
STARLINK-30285,2023-141A,2026-07-19T18:48:49.103424,15.31705716,.0001429,53.1603,29.7413,96.4064,263.7100,0,U,57840,999,16056,.32229E-4,.635E-5,0
STARLINK-30410,2023-141B,2026-07-19T19:02:13.729344,15.31697774,.0001187,53.1614,29.6142,85.0909,275.0228,0,U,57841,999,16056,-.79031E-5,-.61E-5,0
STARLINK-30435,2023-141C,2026-07-19T17:55:09.397056,15.31703580,.0001154,53.1613,30.0644,82.7825,277.3307,0,U,57842,999,16055,.28383E-4,.516E-5,0
STARLINK-30423,2023-141D,2026-07-19T19:15:39.888864,15.31704932,.0001219,53.1621,29.6568,81.4203,278.6937,0,U,57843,999,16056,.46126E-4,.1067E-4,0
