TIANQI-24               
1 57795U 23135D   26200.81675622  .00000090  00000+0  10959-3 0  9999
2 57795  49.9743  15.4889 0013788  16.8543 343.2825 14.23156734149276
YAOGAN-33 03            
1 57797U 23136A   26200.84427148  .00000177  00000+0  47735-4 0  9992
2 57797  98.1938 124.7217 0009176  85.7982 274.4266 14.58750247152698
XRISM                   
1 57800U 23137A   26200.19546554  .00002220  00000+0  11825-3 0  9990
2 57800  31.0011 152.2226 0007840 285.9268  74.0507 15.12686798157714
STARLINK-30374          
1 57809U 23138B   26200.39167761 -.00000023  00000+0  86960-5 0  9995
2 57809  43.0000 210.1264 0001185 275.2601  84.8115 15.27577352158883
STARLINK-30394          
1 57810U 23138C   26200.73274666  .00004737  00000+0  18148-3 0  9994
2 57810  42.9997 208.3861 0001174 268.6000  91.4717 15.27589510158833
STARLINK-30379          
1 57811U 23138D   26200.73659836  .00000130  00000+0  14262-4 0  9998
2 57811  43.0029 208.4166 0001182 275.7165  84.3552 15.27575402158935
STARLINK-30395          
1 57812U 23138E   26200.74047437 -.00001124  00000+0 -31360-4 0  9992
2 57812  43.0035 208.4427 0001161 275.0659  85.0060 15.27563088158930
STARLINK-30403          
1 57813U 23138F   26200.41608778  .00000338  00000+0  21819-4 0  9990
2 57813  43.0031 210.3114 0001525 290.9976  69.0712 15.27578154158783
STARLINK-30413          
1 57814U 23138G   26200.71104185 -.00001790  00000+0 -55554-4 0  9995
2 57814  43.0008 209.0787 0001285 277.6438  82.4268 15.27567240158922
STARLINK-30398          
1 57815U 23138H   26200.36226525  .00001165  00000+0  51877-4 0  9998
2 57815  43.0019 210.7631 0001897 276.8580  83.2055 15.27577837158779
STARLINK-30386          
1 57816U 23138J   26200.30073787  .00000661  00000+0  33550-4 0  9991
2 57816  43.0022 211.1633 0001846 276.7422  83.3220 15.27573479158682
STARLINK-30391          
1 57817U 23138K   26200.10844393  .00008966  00000+0  33483-3 0  9999
2 57817  43.0000 212.2947 0001578 285.1421  74.9256 15.27592501158833
STARLINK-30401          
1 57818U 23138L   26200.37254524  .00000659  00000+0  33475-4 0  9993
2 57818  43.0011 210.8298 0001522 275.0615  85.0063 15.27577429158775
STARLINK-30390          
1 57819U 23138M   26200.37640297  .00001203  00000+0  53236-4 0  9993
2 57819  43.0009 210.8668 0001470 272.4398  87.6285 15.27577067158812
STARLINK-30409          
1 57820U 23138N   26200.39938522 -.00000525  00000+0 -95507-5 0  9994
2 57820  43.0014 210.1624 0001346 259.5872 100.4828 15.27573651158823
STARLINK-30415          
1 57821U 23138P   26200.38796769  .00000482  00000+0  27029-4 0  9992
2 57821  43.0005 210.9495 0001316 270.6480  89.4221 15.27575738158870
STARLINK-30407          
1 57823U 23138R   26200.42411083  .00000259  00000+0  18928-4 0  9992
2 57823  43.0008 104.8143 0001023 263.4387  96.6349 15.27576237160113
STARLINK-30408          
1 57824U 23138S   26200.39553290  .00000129  00000+0  14211-4 0  9993
2 57824  43.0002 210.1510 0001241 271.8004  88.2705 15.27573532158876
STARLINK-30377          
1 57825U 23138T   26200.39424537 -.00001275  00000+0 -36821-4 0  9991
2 57825  42.9995 210.1410 0001189 288.3585  71.7138 15.27572563158772
STARLINK-30422          
1 57826U 23138U   26200.74431157  .00000639  00000+0  32779-4 0  9996
2 57826  43.0043 208.4694 0002068 291.3675  68.6956 15.27571491158923
STARLINK-30402          
1 57827U 23138V   26200.73402833  .00000031  00000+0  10654-4 0  9999
2 57827  43.0026 208.3941 0001527 277.0333  83.0345 15.27574346158925
STARLINK-30411          
1 57828U 23138W   26200.73016694 -.00000395  00000+0 -48294-5 0  9993
2 57828  43.0016 208.3408 0001252 270.2244  89.8464 15.27577144158862
STARLINK-30418          
1 57829U 23138X   26200.39810091 -.00001018  00000+0 -27474-4 0  9998
2 57829  43.0012 210.1679 0001480 275.7172  84.3511 15.27579052158710
YAOGAN-40 01A           
1 57830U 23139A   26200.88244810  .00000065  00000+0  25147-4 0  9999
2 57830  85.9886 245.2828 0002383  93.1800 266.9656 14.12452928147311
YAOGAN-40 01B           
1 57832U 23139C   26200.88260440  .00000068  00000+0  26445-4 0  9993
2 57832  85.9885 245.2603 0002476  92.3039 267.8428 14.12453335147322
YAOGAN-40 01C           
1 57833U 23139D   26200.88252321  .00000069  00000+0  26954-4 0  9999
2 57833  85.9889 244.5472 0002052  74.1821 285.9589 14.12451907147423
STARLINK-30285          
1 57840U 23141A   26200.78390166  .00000635  00000+0  32229-4 0  9990
2 57840  53.1603  29.7413 0001429  96.4064 263.7100 15.31705716160568
STARLINK-30410          
1 57841U 23141B   26200.79321446 -.00000610  00000+0 -79031-5 0  9995
2 57841  53.1614  29.6142 0001187  85.0909 275.0228 15.31697774160563
STARLINK-30435          
1 57842U 23141C   26200.74663654  .00000516  00000+0  28383-4 0  9997
2 57842  53.1613  30.0644 0001154  82.7825 277.3307 15.31703580160556
STARLINK-30423          
1 57843U 23141D   26200.80254501  .00001067  00000+0  46126-4 0  9999
2 57843  53.1621  29.6568 0001219  81.4203 278.6937 15.31704932160569
